{
  "type": "FeatureCollection",
  "features": [
    {
      "type": "Feature",
      "properties": {
        "norad_id": 19071,
        "name": "OSCAR 32",
        "group": "nnss",
        "lat": 62.17623428431638,
        "lon": 16.364517575532794,
        "alt_km": 1085.0192860801371,
        "timestamp": "2025-12-27T04:40:45.774337+00:00",
        "meta_object_name": "OSCAR 32",
        "meta_object_id": "1988-033B",
        "meta_epoch": "2025-12-26T23:15:41.381280",
        "meta_mean_motion": 13.27956058,
        "meta_eccentricity": 0.01893372,
        "meta_inclination": 90.3208,
        "meta_ra_of_asc_node": 16.9657,
        "meta_arg_of_pericenter": 127.4039,
        "meta_mean_anomaly": 298.1908,
        "meta_ephemeris_type": 0,
        "meta_classification_type": "U",
        "meta_norad_cat_id": 19071,
        "meta_element_set_no": 999,
        "meta_rev_at_epoch": 82454,
        "meta_bstar": 0.00015049572,
        "meta_mean_motion_dot": 8.5e-07,
        "meta_mean_motion_ddot": 0,
        "tle_line1": "1 19071U 88033B   25360.96922895  .00000085  00000+0  15050-3 0  9992",
        "tle_line2": "2 19071  90.3208  16.9657 0189337 127.4039 298.1908 13.27956058824549"
      },
      "geometry": {
        "type": "Point",
        "coordinates": [
          16.364517575532794,
          62.17623428431638
        ]
      }
    },
    {
      "type": "Feature",
      "properties": {
        "norad_id": 19223,
        "name": "NOVA 2",
        "group": "nnss",
        "lat": 0.650555794988574,
        "lon": 78.25420462291976,
        "alt_km": 1156.0679327521975,
        "timestamp": "2025-12-27T04:40:45.774361+00:00",
        "meta_object_name": "NOVA 2",
        "meta_object_id": "1988-052A",
        "meta_epoch": "2025-12-27T00:06:20.818368",
        "meta_mean_motion": 13.22937695,
        "meta_eccentricity": 0.00293919,
        "meta_inclination": 89.9863,
        "meta_ra_of_asc_node": 78.2543,
        "meta_arg_of_pericenter": 337.2229,
        "meta_mean_anomaly": 196.3416,
        "meta_ephemeris_type": 0,
        "meta_classification_type": "U",
        "meta_norad_cat_id": 19223,
        "meta_element_set_no": 999,
        "meta_rev_at_epoch": 81136,
        "meta_bstar": 0.00015014862,
        "meta_mean_motion_dot": 7.2e-07,
        "meta_mean_motion_ddot": 0,
        "tle_line1": "1 19223U 88052A   25361.00440762  .00000072  00000+0  15015-3 0  9993",
        "tle_line2": "2 19223  89.9863  78.2543 0029391 337.2229 196.3416 13.22937695811369"
      },
      "geometry": {
        "type": "Point",
        "coordinates": [
          78.25420462291976,
          0.650555794988574
        ]
      }
    },
    {
      "type": "Feature",
      "properties": {
        "norad_id": 19419,
        "name": "OSCAR 25",
        "group": "nnss",
        "lat": 19.930453944526548,
        "lon": 20.27855161731056,
        "alt_km": 1170.6700826030728,
        "timestamp": "2025-12-27T04:40:45.774374+00:00",
        "meta_object_name": "OSCAR 25",
        "meta_object_id": "1988-074A",
        "meta_epoch": "2025-12-26T13:18:28.068192",
        "meta_mean_motion": 13.42625822,
        "meta_eccentricity": 0.0095317,
        "meta_inclination": 90.0336,
        "meta_ra_of_asc_node": 20.2886,
        "meta_arg_of_pericenter": 205.9306,
        "meta_mean_anomaly": 320.1104,
        "meta_ephemeris_type": 0,
        "meta_classification_type": "U",
        "meta_norad_cat_id": 19419,
        "meta_element_set_no": 999,
        "meta_rev_at_epoch": 82825,
        "meta_bstar": 0.00014338,
        "meta_mean_motion_dot": 9.2e-07,
        "meta_mean_motion_ddot": 0,
        "tle_line1": "1 19419U 88074A   25360.55449153  .00000092  00000+0  14338-3 0  9995",
        "tle_line2": "2 19419  90.0336  20.2886 0095317 205.9306 320.1104 13.42625822828254"
      },
      "geometry": {
        "type": "Point",
        "coordinates": [
          20.27855161731056,
          19.930453944526548
        ]
      }
    },
    {
      "type": "Feature",
      "properties": {
        "norad_id": 19420,
        "name": "OSCAR 31",
        "group": "nnss",
        "lat": -82.69049907230448,
        "lon": -159.63229061312512,
        "alt_km": 1076.3343588423331,
        "timestamp": "2025-12-27T04:40:45.774385+00:00",
        "meta_object_name": "OSCAR 31",
        "meta_object_id": "1988-074B",
        "meta_epoch": "2025-12-27T00:05:51.558144",
        "meta_mean_motion": 13.42586905,
        "meta_eccentricity": 0.00937594,
        "meta_inclination": 90.0353,
        "meta_ra_of_asc_node": 20.6424,
        "meta_arg_of_pericenter": 198.7875,
        "meta_mean_anomaly": 220.7607,
        "meta_ephemeris_type": 0,
        "meta_classification_type": "U",
        "meta_norad_cat_id": 19420,
        "meta_element_set_no": 999,
        "meta_rev_at_epoch": 82842,
        "meta_bstar": 0.00012558635,
        "meta_mean_motion_dot": 8.2e-07,
        "meta_mean_motion_ddot": 0,
        "tle_line1": "1 19420U 88074B   25361.00406896  .00000082  00000+0  12559-3 0  9997",
        "tle_line2": "2 19420  90.0353  20.6424 0093759 198.7875 220.7607 13.42586905828425"
      },
      "geometry": {
        "type": "Point",
        "coordinates": [
          -159.63229061312512,
          -82.69049907230448
        ]
      }
    }
  ]
}